YAOGAN-43 01G           
1 60464U 24148G   26068.44348481  .00010133  00000+0  35873-3 0  9993
2 60464  35.0006  62.0013 0007382 306.3543  53.6492 15.28332833 87004
STARLINK-33708          
1 63405U 25065G   26068.44494148  .00030847  00000+0  11248-2 0  9995
2 63405  42.9991 108.3593 0001987 266.6574  93.4050 15.27608857 52809
